ONEWEB-0228             
1 48780U 21045P   24254.81261425  .00000129  00000+0  30820-3 0  9992
2 48780  87.9081  27.4056 0001691 102.2606 257.8714 13.15549111159606
